{
"type": "FeatureCollection",
"name": "cadastral",
"crs": { "type": "name", "properties": { "name": "urn:ogc:def:crs:EPSG::32644" } },
"features": [
{ "type": "Feature", "properties": { "survey_no": "100", "owner_name": "Priya Reddy", "land_use": "Mixed Use", "source": "cadastral", "_truth_id": 0 }, "geometry": { "type": "Polygon", "coordinates": [ [ [ 40.165279212234786, 30.66074266832457 ], [ 40.605416409720419, 26.793605035291851 ], [ 36.257691800195261, 26.298769964326191 ], [ 35.817554602709627, 30.16590759735891 ], [ 40.165279212234786, 30.66074266832457 ] ] ] } },
{ "type": "Feature", "properties": { "survey_no": "101", "owner_name": "Priya Reddy", "land_use": "Residential", "source": "cadastral", "_truth_id": 1 }, "geometry": { "type": "Polygon", "coordinates": [ [ [ 49.214485085884718, 14.859147956273208 ], [ 49.244747854620996, 12.67501670480954 ], [ 45.086954029817434, 12.61740736796734 ], [ 45.056691261081156, 14.801538619431009 ], [ 49.214485085884718, 14.859147956273208 ] ] ] } },
{ "type": "Feature", "properties": { "survey_no": "102", "owner_name": "Anil Sharma", "land_use": "Commercial", "source": "cadastral", "_truth_id": 2 }, "geometry": { "type": "Polygon", "coordinates": [ [ [ 21.552640455807836, 8.393343083577625 ], [ 21.62008396197627, 4.125591117114621 ], [ 17.888954472170099, 4.066627883839018 ], [ 17.821510966001664, 8.334379850302023 ], [ 21.552640455807836, 8.393343083577625 ] ] ] } },
{ "type": "Feature", "properties": { "survey_no": "103", "owner_name": "Sunita Devi", "land_use": "Institutional", "source": "cadastral", "_truth_id": 3 }, "geometry": { "type": "Polygon", "coordinates": [ [ [ 14.451514374872866, 25.343251778583753 ], [ 14.29407798108492, 21.063252870743323 ], [ 12.303972142217551, 21.136457348892531 ], [ 12.461408536005498, 25.416456256732957 ], [ 14.451514374872866, 25.343251778583753 ] ] ] } },
{ "type": "Feature", "properties": { "survey_no": "104", "owner_name": "Suresh Babu", "land_use": "Mixed Use", "source": "cadastral", "_truth_id": 4 }, "geometry": { "type": "Polygon", "coordinates": [ [ [ 39.74407283151195, 40.679666746953998 ], [ 39.930242908308784, 38.757248919820206 ], [ 36.744981213488821, 38.448782983865605 ], [ 36.558811136691986, 40.371200810999397 ], [ 39.74407283151195, 40.679666746953998 ] ] ] } },
{ "type": "Feature", "properties": { "survey_no": "105", "owner_name": "Sunita Devi", "land_use": "Mixed Use", "source": "cadastral", "_truth_id": 5 }, "geometry": { "type": "Polygon", "coordinates": [ [ [ 36.234688529774878, 16.07134019262767 ], [ 36.335140354880906, 13.295681212353323 ], [ 31.635687669497443, 13.125606789450154 ], [ 31.535235844391419, 15.901265769724501 ], [ 36.234688529774878, 16.07134019262767 ] ] ] } },
{ "type": "Feature", "properties": { "survey_no": "106", "owner_name": "Kavitha Iyer", "land_use": "Commercial", "source": "cadastral", "_truth_id": 6 }, "geometry": { "type": "Polygon", "coordinates": [ [ [ 25.120582832411543, 41.24899633334693 ], [ 25.366448309968995, 38.031261110910798 ], [ 23.183048308658368, 37.864428650527451 ], [ 22.93718283110092, 41.082163872963591 ], [ 25.120582832411543, 41.24899633334693 ] ] ] } },
{ "type": "Feature", "properties": { "survey_no": "107", "owner_name": "Vijay Rao", "land_use": "Commercial", "source": "cadastral", "_truth_id": 7 }, "geometry": { "type": "Polygon", "coordinates": [ [ [ 42.119808349357292, 18.699275740756331 ], [ 41.754566793270321, 14.418047896557809 ], [ 39.027373399028782, 14.650711140681258 ], [ 39.392614955115754, 18.931938984879782 ], [ 42.119808349357292, 18.699275740756331 ] ] ] } },
{ "type": "Feature", "properties": { "survey_no": "108", "owner_name": "Ramesh Kumar", "land_use": "Mixed Use", "source": "cadastral", "_truth_id": 8 }, "geometry": { "type": "Polygon", "coordinates": [ [ [ 14.158102339865369, 49.324554866062719 ], [ 13.940820024760463, 45.536228375336627 ], [ 9.786873863802283, 45.774481081613047 ], [ 10.004156178907191, 49.562807572339132 ], [ 14.158102339865369, 49.324554866062719 ] ] ] } },
{ "type": "Feature", "properties": { "survey_no": "109", "owner_name": "Ramesh Kumar", "land_use": "Residential", "source": "cadastral", "_truth_id": 9 }, "geometry": { "type": "Polygon", "coordinates": [ [ [ 9.709346709135909, 19.468024443670988 ], [ 9.450894598174854, 15.981883430893856 ], [ 6.246400339803844, 16.21945509038872 ], [ 6.504852450764901, 19.705596103165849 ], [ 9.709346709135909, 19.468024443670988 ] ] ] } },
{ "type": "Feature", "properties": { "survey_no": "110", "owner_name": "Sunita Devi", "land_use": "Residential", "source": "cadastral", "_truth_id": 10 }, "geometry": { "type": "Polygon", "coordinates": [ [ [ 33.478050373095357, 24.933347430675642 ], [ 33.832342338595829, 22.244740129252012 ], [ 30.384527196009504, 21.790403341985815 ], [ 30.030235230509028, 24.479010643409449 ], [ 33.478050373095357, 24.933347430675642 ] ] ] } },
{ "type": "Feature", "properties": { "survey_no": "111", "owner_name": "Priya Reddy", "land_use": "Institutional", "source": "cadastral", "_truth_id": 11 }, "geometry": { "type": "Polygon", "coordinates": [ [ [ 17.614300385592269, 36.619286278140969 ], [ 17.339402340637875, 33.159092399346939 ], [ 13.565543687728839, 33.458909808994662 ], [ 13.84044173268323, 36.919103687788684 ], [ 17.614300385592269, 36.619286278140969 ] ] ] } },
{ "type": "Feature", "properties": { "survey_no": "112", "owner_name": "Priya Reddy", "land_use": "Residential", "source": "cadastral", "_truth_id": 12 }, "geometry": { "type": "Polygon", "coordinates": [ [ [ 6.18446127968727, 45.680341011324941 ], [ 6.485343458903833, 42.508950278008221 ], [ 2.535999720170992, 42.134260670038515 ], [ 2.235117540954429, 45.30565140335522 ], [ 6.18446127968727, 45.680341011324941 ] ] ] } },
{ "type": "Feature", "properties": { "survey_no": "113", "owner_name": "Suresh Babu", "land_use": "Mixed Use", "source": "cadastral", "_truth_id": 13 }, "geometry": { "type": "Polygon", "coordinates": [ [ [ 32.291241671890383, 32.893854624917353 ], [ 32.014172976569597, 30.757730748033744 ], [ 29.968360529554829, 31.023085483168462 ], [ 30.245429224875618, 33.159209360052074 ], [ 32.291241671890383, 32.893854624917353 ] ] ] } },
{ "type": "Feature", "properties": { "survey_no": "114", "owner_name": "Kavitha Iyer", "land_use": "Mixed Use", "source": "cadastral", "_truth_id": 14 }, "geometry": { "type": "Polygon", "coordinates": [ [ [ 8.781644578537858, 8.506733060566035 ], [ 8.912014067823685, 6.103176005126517 ], [ 5.749334087983194, 5.931631513260516 ], [ 5.618964598697367, 8.335188568700033 ], [ 8.781644578537858, 8.506733060566035 ] ] ] } },
{ "type": "Feature", "properties": { "survey_no": "115", "owner_name": "Ramesh Kumar", "land_use": "Mixed Use", "source": "cadastral", "_truth_id": 15 }, "geometry": { "type": "Polygon", "coordinates": [ [ [ 34.04579080659321, 45.357789323176775 ], [ 34.049020844493462, 43.432949511722462 ], [ 31.001602928677844, 43.427835696376668 ], [ 30.998372890777596, 45.352675507830988 ], [ 34.04579080659321, 45.357789323176775 ] ] ] } },
{ "type": "Feature", "properties": { "survey_no": "116", "owner_name": "Suresh Babu", "land_use": "Residential", "source": "cadastral", "_truth_id": 16 }, "geometry": { "type": "Polygon", "coordinates": [ [ [ 18.548467594624114, 43.770725694224559 ], [ 18.875751993328613, 40.222855686632222 ], [ 16.774464831414267, 40.029015860533484 ], [ 16.447180432709768, 43.576885868125821 ], [ 18.548467594624114, 43.770725694224559 ] ] ] } },
{ "type": "Feature", "properties": { "survey_no": "117", "owner_name": "Priya Reddy", "land_use": "Institutional", "source": "cadastral", "_truth_id": 17 }, "geometry": { "type": "Polygon", "coordinates": [ [ [ 45.85093058645004, 23.785639693869435 ], [ 46.325620877793973, 20.244568316735439 ], [ 43.510195613201979, 19.867152869044595 ], [ 43.035505321858047, 23.408224246178591 ], [ 45.85093058645004, 23.785639693869435 ] ] ] } },
{ "type": "Feature", "properties": { "survey_no": "118", "owner_name": "Suresh Babu", "land_use": "Residential", "source": "cadastral", "_truth_id": 18 }, "geometry": { "type": "Polygon", "coordinates": [ [ [ 27.57767353125903, 27.718112895237088 ], [ 27.603696749571732, 24.203025065518755 ], [ 22.990343808895965, 24.168871070926144 ], [ 22.964320590583267, 27.683958900644477 ], [ 27.57767353125903, 27.718112895237088 ] ] ] } },
{ "type": "Feature", "properties": { "survey_no": "119", "owner_name": "Vijay Rao", "land_use": "Institutional", "source": "cadastral", "_truth_id": 19 }, "geometry": { "type": "Polygon", "coordinates": [ [ [ 45.325173626528702, 39.58023811495385 ], [ 45.450027590974727, 36.117931149634543 ], [ 43.539032038275572, 36.049018897433015 ], [ 43.41417807382954, 39.511325862752315 ], [ 45.325173626528702, 39.58023811495385 ] ] ] } },
{ "type": "Feature", "properties": { "survey_no": "121", "owner_name": "Lakshmi Narayana", "land_use": "Mixed Use", "source": "cadastral", "_truth_id": 21 }, "geometry": { "type": "Polygon", "coordinates": [ [ [ 19.169658680680559, 14.922533744109105 ], [ 19.497499350200378, 11.636624292157025 ], [ 14.80531614222839, 11.168477343221067 ], [ 14.477475472708569, 14.454386795173146 ], [ 19.169658680680559, 14.922533744109105 ] ] ] } }
]
}
