{
"type": "FeatureCollection",
"name": "drone_truth_footprints",
"crs": { "type": "name", "properties": { "name": "urn:ogc:def:crs:EPSG::32644" } },
"features": [
{ "type": "Feature", "properties": { "_truth_id": 0 }, "geometry": { "type": "Polygon", "coordinates": [ [ [ 39.936607100749306, 30.54368087520643 ], [ 40.376744298234939, 26.676543242173711 ], [ 36.029019688709781, 26.181708171208051 ], [ 35.588882491224147, 30.04884580424077 ], [ 39.936607100749306, 30.54368087520643 ] ] ] } },
{ "type": "Feature", "properties": { "_truth_id": 1 }, "geometry": { "type": "Polygon", "coordinates": [ [ [ 49.161895822015012, 14.917355764188978 ], [ 49.192158590751291, 12.733224512725309 ], [ 45.034364765947728, 12.675615175883109 ], [ 45.00410199721145, 14.859746427346778 ], [ 49.161895822015012, 14.917355764188978 ] ] ] } },
{ "type": "Feature", "properties": { "_truth_id": 2 }, "geometry": { "type": "Polygon", "coordinates": [ [ [ 21.591913687131541, 8.473580103912502 ], [ 21.659357193299975, 4.205828137449498 ], [ 17.928227703493803, 4.146864904173896 ], [ 17.860784197325369, 8.4146168706369 ], [ 21.591913687131541, 8.473580103912502 ] ] ] } },
{ "type": "Feature", "properties": { "_truth_id": 3 }, "geometry": { "type": "Polygon", "coordinates": [ [ [ 14.344961340999573, 25.236164841729881 ], [ 14.187524947211626, 20.956165933889451 ], [ 12.197419108344258, 21.029370412038659 ], [ 12.354855502132205, 25.309369319879085 ], [ 14.344961340999573, 25.236164841729881 ] ] ] } },
{ "type": "Feature", "properties": { "_truth_id": 4 }, "geometry": { "type": "Polygon", "coordinates": [ [ [ 39.68247987674561, 40.517772286635264 ], [ 39.868649953542445, 38.595354459501472 ], [ 36.683388258722481, 38.286888523546871 ], [ 36.497218181925646, 40.209306350680663 ], [ 39.68247987674561, 40.517772286635264 ] ] ] } },
{ "type": "Feature", "properties": { "_truth_id": 5 }, "geometry": { "type": "Polygon", "coordinates": [ [ [ 36.17331311669767, 16.009617254555419 ], [ 36.273764941803698, 13.233958274281072 ], [ 31.574312256420235, 13.063883851377904 ], [ 31.473860431314211, 15.839542831652251 ], [ 36.17331311669767, 16.009617254555419 ] ] ] } },
{ "type": "Feature", "properties": { "_truth_id": 6 }, "geometry": { "type": "Polygon", "coordinates": [ [ [ 25.192689931543107, 41.328178410800028 ], [ 25.438555409100559, 38.110443188363895 ], [ 23.255155407789932, 37.943610727980548 ], [ 23.009289930232484, 41.161345950416688 ], [ 25.192689931543107, 41.328178410800028 ] ] ] } },
{ "type": "Feature", "properties": { "_truth_id": 7 }, "geometry": { "type": "Polygon", "coordinates": [ [ [ 42.183271936978514, 18.572299689535878 ], [ 41.818030380891543, 14.291071845337354 ], [ 39.090836986650004, 14.523735089460803 ], [ 39.456078542736975, 18.804962933659329 ], [ 42.183271936978514, 18.572299689535878 ] ] ] } },
{ "type": "Feature", "properties": { "_truth_id": 8 }, "geometry": { "type": "Polygon", "coordinates": [ [ [ 14.22146498990644, 49.642262299479391 ], [ 14.004182674801534, 45.853935808753299 ], [ 9.850236513843354, 46.092188515029719 ], [ 10.067518828948263, 49.880515005755804 ], [ 14.22146498990644, 49.642262299479391 ] ] ] } },
{ "type": "Feature", "properties": { "_truth_id": 9 }, "geometry": { "type": "Polygon", "coordinates": [ [ [ 9.908232508492032, 19.612470803711815 ], [ 9.649780397530977, 16.126329790934683 ], [ 6.445286139159967, 16.363901450429548 ], [ 6.703738250121024, 19.850042463206677 ], [ 9.908232508492032, 19.612470803711815 ] ] ] } },
{ "type": "Feature", "properties": { "_truth_id": 10 }, "geometry": { "type": "Polygon", "coordinates": [ [ [ 33.236029652569634, 24.749683134603501 ], [ 33.590321618070107, 22.061075833179871 ], [ 30.142506475483778, 21.606739045913674 ], [ 29.788214509983302, 24.295346347337308 ], [ 33.236029652569634, 24.749683134603501 ] ] ] } },
{ "type": "Feature", "properties": { "_truth_id": 11 }, "geometry": { "type": "Polygon", "coordinates": [ [ [ 17.74293026832596, 36.509750383519055 ], [ 17.468032223371566, 33.049556504725025 ], [ 13.694173570462532, 33.349373914372748 ], [ 13.969071615416922, 36.809567793166771 ], [ 17.74293026832596, 36.509750383519055 ] ] ] } },
{ "type": "Feature", "properties": { "_truth_id": 12 }, "geometry": { "type": "Polygon", "coordinates": [ [ [ 5.850816485408632, 45.902876863584211 ], [ 6.151698664625195, 42.731486130267491 ], [ 2.202354925892354, 42.356796522297785 ], [ 1.901472746675792, 45.52818725561449 ], [ 5.850816485408632, 45.902876863584211 ] ] ] } },
{ "type": "Feature", "properties": { "_truth_id": 13 }, "geometry": { "type": "Polygon", "coordinates": [ [ [ 32.650213780141542, 32.781454573861204 ], [ 32.373145084820756, 30.645330696977592 ], [ 30.327332637805984, 30.910685432112309 ], [ 30.604401333126773, 33.046809308995925 ], [ 32.650213780141542, 32.781454573861204 ] ] ] } },
{ "type": "Feature", "properties": { "_truth_id": 14 }, "geometry": { "type": "Polygon", "coordinates": [ [ [ 8.8730267346155, 8.689922449871114 ], [ 9.003396223901328, 6.286365394431596 ], [ 5.840716244060836, 6.114820902565595 ], [ 5.710346754775009, 8.518377958005113 ], [ 8.8730267346155, 8.689922449871114 ] ] ] } },
{ "type": "Feature", "properties": { "_truth_id": 15 }, "geometry": { "type": "Polygon", "coordinates": [ [ [ 33.895160329235544, 45.348093497877066 ], [ 33.898390367135796, 43.423253686422754 ], [ 30.850972451320178, 43.41813987107696 ], [ 30.84774241341993, 45.342979682531279 ], [ 33.895160329235544, 45.348093497877066 ] ] ] } },
{ "type": "Feature", "properties": { "_truth_id": 16 }, "geometry": { "type": "Polygon", "coordinates": [ [ [ 18.796728179046823, 43.538361580100222 ], [ 19.124012577751323, 39.990491572507885 ], [ 17.022725415836977, 39.796651746409147 ], [ 16.695441017132477, 43.344521754001484 ], [ 18.796728179046823, 43.538361580100222 ] ] ] } },
{ "type": "Feature", "properties": { "_truth_id": 17 }, "geometry": { "type": "Polygon", "coordinates": [ [ [ 45.985796837255265, 23.895279897954573 ], [ 46.460487128599198, 20.354208520820578 ], [ 43.645061864007204, 19.976793073129734 ], [ 43.170371572663271, 23.51786445026373 ], [ 45.985796837255265, 23.895279897954573 ] ] ] } },
{ "type": "Feature", "properties": { "_truth_id": 18 }, "geometry": { "type": "Polygon", "coordinates": [ [ [ 27.290621415066383, 27.794664767331131 ], [ 27.316644633379084, 24.279576937612799 ], [ 22.703291692703317, 24.245422943020188 ], [ 22.677268474390619, 27.76051077273852 ], [ 27.290621415066383, 27.794664767331131 ] ] ] } },
{ "type": "Feature", "properties": { "_truth_id": 19 }, "geometry": { "type": "Polygon", "coordinates": [ [ [ 45.296806194346445, 39.559937220311809 ], [ 45.42166015879247, 36.097630254992502 ], [ 43.510664606093314, 36.028718002790974 ], [ 43.385810641647282, 39.491024968110274 ], [ 45.296806194346445, 39.559937220311809 ] ] ] } },
{ "type": "Feature", "properties": { "_truth_id": 20 }, "geometry": { "type": "Polygon", "coordinates": [ [ [ 45.041529537608064, 9.058783220142914 ], [ 44.833007735537088, 6.318919553835781 ], [ 41.486111637810595, 6.573640551170252 ], [ 41.694633439881571, 9.313504217477385 ], [ 45.041529537608064, 9.058783220142914 ] ] ] } },
{ "type": "Feature", "properties": { "_truth_id": 21 }, "geometry": { "type": "Polygon", "coordinates": [ [ [ 19.208801284310368, 14.938329511942795 ], [ 19.536641953830188, 11.652420059990716 ], [ 14.8444587458582, 11.184273111054758 ], [ 14.516618076338379, 14.470182563006837 ], [ 19.208801284310368, 14.938329511942795 ] ] ] } }
]
}
