{
"type": "FeatureCollection",
"name": "municipal",
"crs": { "type": "name", "properties": { "name": "urn:ogc:def:crs:EPSG::32644" } },
"features": [
{ "type": "Feature", "properties": { "property_id": "MP-2026-1000", "owner_name": "Priya  Reddi", "building_use": "Mixed Use", "source": "municipal", "_truth_id": 0 }, "geometry": { "type": "Polygon", "coordinates": [ [ [ 41.69993082013108, 31.528428017222978 ], [ 42.140068017616713, 27.661290384190259 ], [ 37.792343408091554, 27.166455313224599 ], [ 37.352206210605921, 31.033592946257318 ], [ 41.69993082013108, 31.528428017222978 ] ] ] } },
{ "type": "Feature", "properties": { "property_id": "MP-2026-1001", "owner_name": "Priya  Reddi", "building_use": "Residential", "source": "municipal", "_truth_id": 1 }, "geometry": { "type": "Polygon", "coordinates": [ [ [ 51.386753619550483, 16.118676070234983 ], [ 51.417016388286761, 13.934544818771315 ], [ 47.259222563483199, 13.876935481929115 ], [ 47.22895979474692, 16.061066733392785 ], [ 51.386753619550483, 16.118676070234983 ] ] ] } },
{ "type": "Feature", "properties": { "property_id": "MP-2026-1002", "owner_name": "Anil Sharma ", "building_use": "Commercial", "source": "municipal", "_truth_id": 2 }, "geometry": { "type": "Polygon", "coordinates": [ [ [ 23.315491162896421, 9.656027387049864 ], [ 23.382934669064852, 5.388275420586861 ], [ 19.65180517925868, 5.329312187311259 ], [ 19.58436167309025, 9.597064153774262 ], [ 23.315491162896421, 9.656027387049864 ] ] ] } },
{ "type": "Feature", "properties": { "property_id": "MP-2026-1003", "owner_name": "Sunita D.", "building_use": "Institutional", "source": "municipal", "_truth_id": 3 }, "geometry": { "type": "Polygon", "coordinates": [ [ [ 16.277070890992977, 26.291153582485748 ], [ 16.11963449720503, 22.011154674645319 ], [ 14.12952865833766, 22.084359152794526 ], [ 14.286965052125607, 26.364358060634952 ], [ 16.277070890992977, 26.291153582485748 ] ] ] } },
{ "type": "Feature", "properties": { "property_id": "MP-2026-1004", "owner_name": "Suresh  Babu", "building_use": "Mixed Use", "source": "municipal", "_truth_id": 4 }, "geometry": { "type": "Polygon", "coordinates": [ [ [ 41.808255681220864, 41.827158928647044 ], [ 41.994425758017698, 39.904741101513252 ], [ 38.809164063197734, 39.596275165558652 ], [ 38.6229939864009, 41.518692992692444 ], [ 41.808255681220864, 41.827158928647044 ] ] ] } },
{ "type": "Feature", "properties": { "property_id": "MP-2026-1005", "owner_name": "Sunita D.", "building_use": "Mixed Use", "source": "municipal", "_truth_id": 5 }, "geometry": { "type": "Polygon", "coordinates": [ [ [ 38.201000084572222, 17.21316388705435 ], [ 38.301451909678249, 14.437504906780003 ], [ 33.601999224294786, 14.267430483876836 ], [ 33.501547399188766, 17.043089464151183 ], [ 38.201000084572222, 17.21316388705435 ] ] ] } },
{ "type": "Feature", "properties": { "property_id": "MP-2026-1006", "owner_name": "Kavita Iyer", "building_use": "Commercial", "source": "municipal", "_truth_id": 6 }, "geometry": { "type": "Polygon", "coordinates": [ [ [ 27.025639911064069, 42.408712565953934 ], [ 27.27150538862152, 39.190977343517801 ], [ 25.088105387310893, 39.024144883134454 ], [ 24.842239909753445, 42.241880105570594 ], [ 27.025639911064069, 42.408712565953934 ] ] ] } },
{ "type": "Feature", "properties": { "property_id": "MP-2026-1007", "owner_name": "Vijaya Rao", "building_use": "Commercial", "source": "municipal", "_truth_id": 7 }, "geometry": { "type": "Polygon", "coordinates": [ [ [ 43.736843544205989, 19.524700091532321 ], [ 43.371601988119018, 15.243472247333797 ], [ 40.644408593877479, 15.476135491457246 ], [ 41.00965014996445, 19.757363335655771 ], [ 43.736843544205989, 19.524700091532321 ] ] ] } },
{ "type": "Feature", "properties": { "property_id": "MP-2026-1008", "owner_name": "Ramesh  Kumarr", "building_use": "Mixed Use", "source": "municipal", "_truth_id": 8 }, "geometry": { "type": "Polygon", "coordinates": [ [ [ 16.180796652972631, 50.556526639535889 ], [ 15.963514337867725, 46.768200148809797 ], [ 11.809568176909545, 47.006452855086216 ], [ 12.026850492014454, 50.794779345812302 ], [ 16.180796652972631, 50.556526639535889 ] ] ] } },
{ "type": "Feature", "properties": { "property_id": "MP-2026-1009", "owner_name": "Ramesh  Kumarr", "building_use": "Residential", "source": "municipal", "_truth_id": 9 }, "geometry": { "type": "Polygon", "coordinates": [ [ [ 11.766937134048973, 21.010988007227326 ], [ 11.508485023087918, 17.524846994450193 ], [ 8.303990764716907, 17.762418653945058 ], [ 8.562442875677965, 21.248559666722187 ], [ 11.766937134048973, 21.010988007227326 ] ] ] } },
{ "type": "Feature", "properties": { "property_id": "MP-2026-1010", "owner_name": "Sunita D.", "building_use": "Residential", "source": "municipal", "_truth_id": 10 }, "geometry": { "type": "Polygon", "coordinates": [ [ [ 35.211255491709707, 26.142728735274485 ], [ 35.56554745721018, 23.454121433850855 ], [ 32.117732314623851, 22.999784646584658 ], [ 31.763440349123375, 25.688391948008292 ], [ 35.211255491709707, 26.142728735274485 ] ] ] } },
{ "type": "Feature", "properties": { "property_id": "MP-2026-1012", "owner_name": "Priya  Reddi", "building_use": "Residential", "source": "municipal", "_truth_id": 12 }, "geometry": { "type": "Polygon", "coordinates": [ [ [ 7.507178648140988, 47.195663576640882 ], [ 7.80806082735755, 44.024272843324162 ], [ 3.85871708862471, 43.649583235354456 ], [ 3.557834909408148, 46.820973968671161 ], [ 7.507178648140988, 47.195663576640882 ] ] ] } },
{ "type": "Feature", "properties": { "property_id": "MP-2026-1013", "owner_name": "Suresh  Babu", "building_use": "Mixed Use", "source": "municipal", "_truth_id": 13 }, "geometry": { "type": "Polygon", "coordinates": [ [ [ 34.618638450595341, 33.691856413396955 ], [ 34.341569755274556, 31.555732536513343 ], [ 32.29575730825978, 31.821087271648061 ], [ 32.572826003580573, 33.957211148531677 ], [ 34.618638450595341, 33.691856413396955 ] ] ] } },
{ "type": "Feature", "properties": { "property_id": "MP-2026-1014", "owner_name": "Kavita Iyer", "building_use": "Mixed Use", "source": "municipal", "_truth_id": 14 }, "geometry": { "type": "Polygon", "coordinates": [ [ [ 11.038881276727786, 10.05735458451603 ], [ 11.169250766013613, 7.653797529076512 ], [ 8.006570786173121, 7.482253037210511 ], [ 7.876201296887295, 9.885810092650029 ], [ 11.038881276727786, 10.05735458451603 ] ] ] } },
{ "type": "Feature", "properties": { "property_id": "MP-2026-1015", "owner_name": "Ramesh  Kumarr", "building_use": "Mixed Use", "source": "municipal", "_truth_id": 15 }, "geometry": { "type": "Polygon", "coordinates": [ [ [ 35.561073865927455, 46.851306788752055 ], [ 35.564303903827707, 44.926466977297743 ], [ 32.516885988012085, 44.921353161951949 ], [ 32.51365595011184, 46.846192973406268 ], [ 35.561073865927455, 46.851306788752055 ] ] ] } },
{ "type": "Feature", "properties": { "property_id": "MP-2026-1016", "owner_name": "Suresh  Babu", "building_use": "Commercial", "source": "municipal", "_truth_id": 16 }, "geometry": { "type": "Polygon", "coordinates": [ [ [ 20.518300924454913, 44.240932813978432 ], [ 20.845585323159412, 40.693062806386095 ], [ 18.744298161245066, 40.499222980287357 ], [ 18.417013762540567, 44.047092987879694 ], [ 20.518300924454913, 44.240932813978432 ] ] ] } },
{ "type": "Feature", "properties": { "property_id": "MP-2026-1017", "owner_name": "Priya  Reddi", "building_use": "Institutional", "source": "municipal", "_truth_id": 17 }, "geometry": { "type": "Polygon", "coordinates": [ [ [ 47.760032476977514, 25.066499483249217 ], [ 48.234722768321447, 21.525428106115221 ], [ 45.419297503729453, 21.148012658424378 ], [ 44.94460721238552, 24.689084035558373 ], [ 47.760032476977514, 25.066499483249217 ] ] ] } },
{ "type": "Feature", "properties": { "property_id": "MP-2026-1018", "owner_name": "Suresh  Babu", "building_use": "Residential", "source": "municipal", "_truth_id": 18 }, "geometry": { "type": "Polygon", "coordinates": [ [ [ 29.034615485479545, 29.02149020404924 ], [ 29.060638703792247, 25.506402374330907 ], [ 24.447285763116479, 25.472248379738296 ], [ 24.421262544803781, 28.987336209456629 ], [ 29.034615485479545, 29.02149020404924 ] ] ] } },
{ "type": "Feature", "properties": { "property_id": "MP-2026-1020", "owner_name": "Priya  Reddi", "building_use": "Residential", "source": "municipal", "_truth_id": 20 }, "geometry": { "type": "Polygon", "coordinates": [ [ [ 46.911635117695909, 10.679616604395976 ], [ 46.703113315624933, 7.939752938088843 ], [ 43.35621721789844, 8.194473935423314 ], [ 43.564739019969416, 10.934337601730448 ], [ 46.911635117695909, 10.679616604395976 ] ] ] } },
{ "type": "Feature", "properties": { "property_id": "MP-2026-1021", "owner_name": "Lakshmi Narayanan", "building_use": "Mixed Use", "source": "municipal", "_truth_id": 21 }, "geometry": { "type": "Polygon", "coordinates": [ [ [ 20.98015814275151, 15.978739760191209 ], [ 21.307998812271329, 12.692830308239129 ], [ 16.615815604299339, 12.224683359303171 ], [ 16.28797493477952, 15.51059281125525 ], [ 20.98015814275151, 15.978739760191209 ] ] ] } }
]
}
