{
"type": "FeatureCollection",
"name": "revenue",
"crs": { "type": "name", "properties": { "name": "urn:ogc:def:crs:EPSG::32644" } },
"features": [
{ "type": "Feature", "properties": { "record_id": "RR-2026-200", "owner_name": "Priya Reddy", "assessment_status": "Assessed", "source": "revenue", "_truth_id": 0 }, "geometry": { "type": "Polygon", "coordinates": [ [ [ 39.616238872888097, 30.408304692030011 ], [ 40.05637607037373, 26.541167058997292 ], [ 35.708651460848571, 26.046331988031632 ], [ 35.268514263362938, 29.913469621064351 ], [ 39.616238872888097, 30.408304692030011 ] ] ] } },
{ "type": "Feature", "properties": { "record_id": "RR-2026-201", "owner_name": "Priya Reddy", "assessment_status": "Assessed", "source": "revenue", "_truth_id": 1 }, "geometry": { "type": "Polygon", "coordinates": [ [ [ 49.48271996225057, 15.005173892146541 ], [ 49.512982730986849, 12.821042640682872 ], [ 45.355188906183287, 12.763433303840673 ], [ 45.324926137447008, 14.947564555304341 ], [ 49.48271996225057, 15.005173892146541 ] ] ] } },
{ "type": "Feature", "properties": { "record_id": "RR-2026-202", "owner_name": "Anil Sharma", "assessment_status": "Assessed", "source": "revenue", "_truth_id": 2 }, "geometry": { "type": "Polygon", "coordinates": [ [ [ 21.756291789389604, 8.326908357482079 ], [ 21.823735295558038, 4.059156391019076 ], [ 18.092605805751866, 4.000193157743473 ], [ 18.025162299583432, 8.267945124206477 ], [ 21.756291789389604, 8.326908357482079 ] ] ] } },
{ "type": "Feature", "properties": { "record_id": "RR-2026-203", "owner_name": "Sunita Devi", "assessment_status": "Pending", "source": "revenue", "_truth_id": 3 }, "geometry": { "type": "Polygon", "coordinates": [ [ [ 14.319408160176387, 25.298437958355727 ], [ 14.16197176638844, 21.018439050515298 ], [ 12.171865927521072, 21.091643528664505 ], [ 12.329302321309019, 25.371642436504931 ], [ 14.319408160176387, 25.298437958355727 ] ] ] } },
{ "type": "Feature", "properties": { "record_id": "RR-2026-204", "owner_name": "Suresh Babu", "assessment_status": "Assessed", "source": "revenue", "_truth_id": 4 }, "geometry": { "type": "Polygon", "coordinates": [ [ [ 40.278959567448062, 39.962996404622793 ], [ 40.465129644244897, 38.040578577489001 ], [ 37.279867949424933, 37.7321126415344 ], [ 37.093697872628098, 39.654530468668192 ], [ 40.278959567448062, 39.962996404622793 ] ] ] } },
{ "type": "Feature", "properties": { "record_id": "RR-2026-205", "owner_name": "Sunita Devi", "assessment_status": "Assessed", "source": "revenue", "_truth_id": 5 }, "geometry": { "type": "Polygon", "coordinates": [ [ [ 35.784717910388473, 16.134136314354908 ], [ 35.8851697354945, 13.358477334080561 ], [ 31.185717050111037, 13.188402911177393 ], [ 31.085265225005013, 15.96406189145174 ], [ 35.784717910388473, 16.134136314354908 ] ] ] } },
{ "type": "Feature", "properties": { "record_id": "RR-2026-206", "owner_name": "Kavitha Iyer", "assessment_status": "Pending", "source": "revenue", "_truth_id": 6 }, "geometry": { "type": "Polygon", "coordinates": [ [ [ 25.27167613988254, 41.482223032982411 ], [ 25.517541617439992, 38.264487810546278 ], [ 23.334141616129365, 38.097655350162931 ], [ 23.088276138571917, 41.315390572599071 ], [ 25.27167613988254, 41.482223032982411 ] ] ] } },
{ "type": "Feature", "properties": { "record_id": "RR-2026-207", "owner_name": "Vijay Rao", "assessment_status": "Assessed", "source": "revenue", "_truth_id": 7 }, "geometry": { "type": "Polygon", "coordinates": [ [ [ 42.395570486405305, 18.726215509116976 ], [ 42.030328930318333, 14.444987664918454 ], [ 39.303135536076795, 14.677650909041903 ], [ 39.668377092163766, 18.958878753240427 ], [ 42.395570486405305, 18.726215509116976 ] ] ] } },
{ "type": "Feature", "properties": { "record_id": "RR-2026-208", "owner_name": "Ramesh Kumar", "assessment_status": "Pending", "source": "revenue", "_truth_id": 8 }, "geometry": { "type": "Polygon", "coordinates": [ [ [ 14.61706829503723, 49.993455806108592 ], [ 14.399785979932323, 46.2051293153825 ], [ 10.245839818974144, 46.44338202165892 ], [ 10.463122134079052, 50.231708512385005 ], [ 14.61706829503723, 49.993455806108592 ] ] ] } },
{ "type": "Feature", "properties": { "record_id": "RR-2026-209", "owner_name": "Ramesh Kumar", "assessment_status": "Pending", "source": "revenue", "_truth_id": 9 }, "geometry": { "type": "Polygon", "coordinates": [ [ [ 9.72214744210426, 19.561019133353732 ], [ 9.463695331143205, 16.074878120576599 ], [ 6.259201072772196, 16.312449780071464 ], [ 6.517653183733253, 19.798590792848593 ], [ 9.72214744210426, 19.561019133353732 ] ] ] } },
{ "type": "Feature", "properties": { "record_id": "RR-2026-210", "owner_name": "Sunita Devi", "assessment_status": "Assessed", "source": "revenue", "_truth_id": 10 }, "geometry": { "type": "Polygon", "coordinates": [ [ [ 32.943988809090094, 24.646496127925424 ], [ 33.298280774590566, 21.957888826501794 ], [ 29.850465632004237, 21.503552039235597 ], [ 29.496173666503761, 24.192159340659231 ], [ 32.943988809090094, 24.646496127925424 ] ] ] } },
{ "type": "Feature", "properties": { "record_id": "RR-2026-211", "owner_name": "Priya Reddy", "assessment_status": "Assessed", "source": "revenue", "_truth_id": 11 }, "geometry": { "type": "Polygon", "coordinates": [ [ [ 17.710392266001666, 36.670635384726658 ], [ 17.435494221047271, 33.210441505932629 ], [ 13.661635568138239, 33.510258915580351 ], [ 13.93653361309263, 36.970452794374374 ], [ 17.710392266001666, 36.670635384726658 ] ] ] } },
{ "type": "Feature", "properties": { "record_id": "RR-2026-212", "owner_name": "Priya Reddy", "assessment_status": "Assessed", "source": "revenue", "_truth_id": 12 }, "geometry": { "type": "Polygon", "coordinates": [ [ [ 5.799093851223999, 45.322104548311678 ], [ 6.099976030440561, 42.150713814994958 ], [ 2.150632291707721, 41.776024207025252 ], [ 1.849750112491159, 44.947414940341957 ], [ 5.799093851223999, 45.322104548311678 ] ] ] } },
{ "type": "Feature", "properties": { "record_id": "RR-2026-213", "owner_name": "Suresh Babu", "assessment_status": "Pending", "source": "revenue", "_truth_id": 13 }, "geometry": { "type": "Polygon", "coordinates": [ [ [ 32.384375561238251, 32.823478986914651 ], [ 32.107306865917465, 30.687355110031035 ], [ 30.06149441890269, 30.952709845165753 ], [ 30.338563114223479, 33.088833722049372 ], [ 32.384375561238251, 32.823478986914651 ] ] ] } },
{ "type": "Feature", "properties": { "record_id": "RR-2026-214", "owner_name": "Kavitha Iyer", "assessment_status": "Assessed", "source": "revenue", "_truth_id": 14 }, "geometry": { "type": "Polygon", "coordinates": [ [ [ 8.741052558366773, 8.434647382387624 ], [ 8.871422047652601, 6.031090326948107 ], [ 5.708742067812109, 5.859545835082105 ], [ 5.578372578526282, 8.263102890521623 ], [ 8.741052558366773, 8.434647382387624 ] ] ] } },
{ "type": "Feature", "properties": { "record_id": "RR-2026-215", "owner_name": "Ramesh Kumar", "assessment_status": "Assessed", "source": "revenue", "_truth_id": 15 }, "geometry": { "type": "Polygon", "coordinates": [ [ [ 33.749959137234242, 45.738456132078298 ], [ 33.753189175134494, 43.813616320623986 ], [ 30.705771259318876, 43.808502505278192 ], [ 30.702541221418628, 45.733342316732511 ], [ 33.749959137234242, 45.738456132078298 ] ] ] } },
{ "type": "Feature", "properties": { "record_id": "RR-2026-216", "owner_name": "Suresh Babu", "assessment_status": "Assessed", "source": "revenue", "_truth_id": 16 }, "geometry": { "type": "Polygon", "coordinates": [ [ [ 18.864896341982529, 43.02223579921359 ], [ 19.192180740687029, 39.474365791621253 ], [ 17.090893578772683, 39.280525965522514 ], [ 16.763609180068183, 42.828395973114851 ], [ 18.864896341982529, 43.02223579921359 ] ] ] } },
{ "type": "Feature", "properties": { "record_id": "RR-2026-217", "owner_name": "Priya Reddy", "assessment_status": "Assessed", "source": "revenue", "_truth_id": 17 }, "geometry": { "type": "Polygon", "coordinates": [ [ [ 46.075670014144869, 24.096509153728192 ], [ 46.550360305488802, 20.555437776594196 ], [ 43.734935040896808, 20.178022328903353 ], [ 43.260244749552875, 23.719093706037349 ], [ 46.075670014144869, 24.096509153728192 ] ] ] } },
{ "type": "Feature", "properties": { "record_id": "RR-2026-218", "owner_name": "Suresh Babu", "assessment_status": "Assessed", "source": "revenue", "_truth_id": 18 }, "geometry": { "type": "Polygon", "coordinates": [ [ [ 27.553296723626637, 27.303260763282566 ], [ 27.579319941939339, 23.788172933564233 ], [ 22.965967001263571, 23.754018938971623 ], [ 22.939943782950873, 27.269106768689955 ], [ 27.553296723626637, 27.303260763282566 ] ] ] } },
{ "type": "Feature", "properties": { "record_id": "RR-2026-219", "owner_name": "Vijay Rao", "assessment_status": "Assessed", "source": "revenue", "_truth_id": 19 }, "geometry": { "type": "Polygon", "coordinates": [ [ [ 44.817829649184084, 39.429987878084937 ], [ 44.942683613630109, 35.96768091276563 ], [ 43.031688060930954, 35.898768660564102 ], [ 42.906834096484921, 39.361075625883402 ], [ 44.817829649184084, 39.429987878084937 ] ] ] } },
{ "type": "Feature", "properties": { "record_id": "RR-2026-220", "owner_name": "Priya Reddy", "assessment_status": "Assessed", "source": "revenue", "_truth_id": 20 }, "geometry": { "type": "Polygon", "coordinates": [ [ [ 44.487789051682569, 8.994585638742288 ], [ 44.279267249611593, 6.254721972435155 ], [ 40.9323711518851, 6.509442969769626 ], [ 41.140892953956076, 9.24930663607676 ], [ 44.487789051682569, 8.994585638742288 ] ] ] } },
{ "type": "Feature", "properties": { "record_id": "RR-2026-221", "owner_name": "Lakshmi Narayana", "assessment_status": "Pending", "source": "revenue", "_truth_id": 21 }, "geometry": { "type": "Polygon", "coordinates": [ [ [ 19.192638736753743, 15.069135261664217 ], [ 19.520479406273562, 11.783225809712137 ], [ 14.828296198301574, 11.315078860776179 ], [ 14.500455528781753, 14.600988312728258 ], [ 19.192638736753743, 15.069135261664217 ] ] ] } },
{ "type": "Feature", "properties": { "record_id": "RR-2026-999", "owner_name": "Unknown Legacy Owner", "assessment_status": "Pending", "source": "revenue", "_truth_id": -1 }, "geometry": { "type": "Polygon", "coordinates": [ [ [ 3.832708510846018, 3.818171269355389 ], [ 3.634088073122484, 2.37934690775233 ], [ 2.167291489153984, 2.581828730644611 ], [ 2.365911926877518, 4.02065309224767 ], [ 3.832708510846018, 3.818171269355389 ] ] ] } }
]
}
