{
"type": "FeatureCollection",
"name": "utility",
"crs": { "type": "name", "properties": { "name": "urn:ogc:def:crs:EPSG::32644" } },
"features": [
{ "type": "Feature", "properties": { "utility_id": "UTL-0020", "connection_type": "Sewer", "owner_name": "Priya Reddy", "source": "utility", "_truth_id": 20 }, "geometry": { "type": "Polygon", "coordinates": [ [ [ 44.935293435760848, 9.661645820091953 ], [ 44.899427713598122, 6.395028797189634 ], [ 41.129490950418358, 6.681945995741851 ], [ 41.370208953707078, 9.844850327502257 ], [ 44.935293435760848, 9.661645820091953 ] ] ] } },
{ "type": "Feature", "properties": { "utility_id": "UTL-0017", "connection_type": "Sewer", "owner_name": "Priya Reddy", "source": "utility", "_truth_id": 17 }, "geometry": { "type": "Polygon", "coordinates": [ [ [ 45.671514825539504, 24.546784683437881 ], [ 46.455438421726782, 20.57632140475101 ], [ 43.238587499925941, 20.06158355635857 ], [ 42.626574807880417, 24.00408059070141 ], [ 45.671514825539504, 24.546784683437881 ] ] ] } },
{ "type": "Feature", "properties": { "utility_id": "UTL-0007", "connection_type": "Electric", "owner_name": "Vijay Rao", "source": "utility", "_truth_id": 7 }, "geometry": { "type": "Polygon", "coordinates": [ [ [ 42.5456913034444, 19.070095159512917 ], [ 42.406546342150136, 14.326556010616116 ], [ 39.264358173906224, 14.471018701732691 ], [ 39.541399176986317, 19.167241319933591 ], [ 42.5456913034444, 19.070095159512917 ] ] ] } },
{ "type": "Feature", "properties": { "utility_id": "UTL-0010", "connection_type": "Water", "owner_name": "Sunita Devi", "source": "utility", "_truth_id": 10 }, "geometry": { "type": "Polygon", "coordinates": [ [ [ 33.092263786039261, 25.114095710420973 ], [ 33.704733473866796, 21.923008414072861 ], [ 29.832883097221945, 21.454738921508053 ], [ 29.464658426422858, 24.567381456990205 ], [ 33.092263786039261, 25.114095710420973 ] ] ] } },
{ "type": "Feature", "properties": { "utility_id": "UTL-0001", "connection_type": "Sewer", "owner_name": "Priya Reddy", "source": "utility", "_truth_id": 1 }, "geometry": { "type": "Polygon", "coordinates": [ [ [ 48.9584926348005, 15.135561705846229 ], [ 49.137982727951773, 12.388867539473795 ], [ 44.572526195685498, 12.448778911207457 ], [ 44.659784135525079, 15.040572870133836 ], [ 48.9584926348005, 15.135561705846229 ] ] ] } },
{ "type": "Feature", "properties": { "utility_id": "UTL-0019", "connection_type": "Electric", "owner_name": "Vijay Rao", "source": "utility", "_truth_id": 19 }, "geometry": { "type": "Polygon", "coordinates": [ [ [ 45.536411291861143, 39.877331460467971 ], [ 45.941577412022426, 35.983426872371446 ], [ 43.629288460397916, 35.776806203655397 ], [ 43.366726079437363, 39.640406567900051 ], [ 45.536411291861143, 39.877331460467971 ] ] ] } },
{ "type": "Feature", "properties": { "utility_id": "UTL-0021", "connection_type": "Electric", "owner_name": "Lakshmi Narayana", "source": "utility", "_truth_id": 21 }, "geometry": { "type": "Polygon", "coordinates": [ [ [ 19.160952548399475, 15.231055923939483 ], [ 19.730977652934548, 11.434765652361865 ], [ 14.614530717217448, 10.966080818844551 ], [ 14.286152163116272, 14.676253998541741 ], [ 19.160952548399475, 15.231055923939483 ] ] ] } },
{ "type": "Feature", "properties": { "utility_id": "UTL-0012", "connection_type": "Sewer", "owner_name": "Priya Reddy", "source": "utility", "_truth_id": 12 }, "geometry": { "type": "Polygon", "coordinates": [ [ [ 5.665169130438926, 46.336503022809872 ], [ 6.205756631433022, 42.653562448014512 ], [ 1.832151548843568, 42.280393402105297 ], [ 1.532789931687492, 45.876045479278616 ], [ 5.665169130438926, 46.336503022809872 ] ] ] } },
{ "type": "Feature", "properties": { "utility_id": "UTL-0005", "connection_type": "Electric", "owner_name": "Sunita Devi", "source": "utility", "_truth_id": 5 }, "geometry": { "type": "Polygon", "coordinates": [ [ [ 36.125661048825059, 16.715488505876653 ], [ 36.412546304001211, 13.396776023296367 ], [ 31.294260394319437, 13.294367915675519 ], [ 31.261474884495733, 16.488860120248169 ], [ 36.125661048825059, 16.715488505876653 ] ] ] } },
{ "type": "Feature", "properties": { "utility_id": "UTL-0006", "connection_type": "Water", "owner_name": "Kavitha Iyer", "source": "utility", "_truth_id": 6 }, "geometry": { "type": "Polygon", "coordinates": [ [ [ 25.68598659485728, 41.425754575881804 ], [ 26.216122414732052, 37.761708907206369 ], [ 23.624125899134654, 37.480644715186401 ], [ 23.264028689940584, 41.106976451909311 ], [ 25.68598659485728, 41.425754575881804 ] ] ] } },
{ "type": "Feature", "properties": { "utility_id": "UTL-0004", "connection_type": "Electric", "owner_name": "Suresh Babu", "source": "utility", "_truth_id": 4 }, "geometry": { "type": "Polygon", "coordinates": [ [ [ 39.739385453948927, 41.163971528823865 ], [ 40.144411497956874, 38.710736788027226 ], [ 36.536997203439363, 38.444545934196753 ], [ 36.393102208766656, 40.789116361028093 ], [ 39.739385453948927, 41.163971528823865 ] ] ] } },
{ "type": "Feature", "properties": { "utility_id": "UTL-0015", "connection_type": "Water", "owner_name": "Ramesh Kumar", "source": "utility", "_truth_id": 15 }, "geometry": { "type": "Polygon", "coordinates": [ [ [ 34.484197282066489, 45.841239885896819 ], [ 34.655020160437161, 43.367239651580924 ], [ 31.191351982610328, 43.444197264732459 ], [ 31.270193373207409, 45.785287338197996 ], [ 34.484197282066489, 45.841239885896819 ] ] ] } },
{ "type": "Feature", "properties": { "utility_id": "UTL-0003", "connection_type": "Water", "owner_name": "Sunita Devi", "source": "utility", "_truth_id": 3 }, "geometry": { "type": "Polygon", "coordinates": [ [ [ 13.930501525595311, 25.723791869022815 ], [ 14.034793704991108, 21.019079914755839 ], [ 11.647015684651908, 20.94444381632529 ], [ 11.656611501860096, 25.622114905637545 ], [ 13.930501525595311, 25.723791869022815 ] ] ] } }
]
}
