{
"type": "FeatureCollection",
"name": "harmonized_output",
"crs": { "type": "name", "properties": { "name": "urn:ogc:def:crs:EPSG::32644" } },
"features": [
{ "type": "Feature", "properties": { "status": "auto_validate", "confidence": 0.986, "confidence_tier": "high", "matched_survey_no": "108", "matched_owner_name": "Ramesh Kumar", "matched_land_use": "Mixed Use", "cross_source_support_count": 3, "extraction_method": "specialized", "extraction_confidence": 0.86 }, "geometry": { "type": "Polygon", "coordinates": [ [ [ 10.2, 50.0 ], [ 10.2, 49.9 ], [ 10.1, 49.9 ], [ 10.1, 49.8 ], [ 10.0, 49.8 ], [ 10.0, 47.8 ], [ 9.9, 47.8 ], [ 9.9, 46.4 ], [ 10.0, 46.4 ], [ 10.0, 46.1 ], [ 10.1, 46.1 ], [ 10.1, 46.0 ], [ 10.6, 46.0 ], [ 10.6, 46.1 ], [ 11.1, 46.1 ], [ 11.1, 46.0 ], [ 12.0, 46.0 ], [ 12.0, 45.9 ], [ 13.9, 45.9 ], [ 13.9, 46.1 ], [ 14.0, 46.1 ], [ 14.0, 46.7 ], [ 14.1, 46.7 ], [ 14.1, 48.5 ], [ 14.2, 48.5 ], [ 14.2, 49.6 ], [ 14.1, 49.6 ], [ 14.1, 49.7 ], [ 13.9, 49.7 ], [ 13.9, 49.8 ], [ 13.7, 49.8 ], [ 13.7, 49.9 ], [ 13.4, 49.9 ], [ 13.4, 49.8 ], [ 13.2, 49.8 ], [ 13.2, 49.7 ], [ 12.5, 49.7 ], [ 12.5, 49.8 ], [ 11.2, 49.8 ], [ 11.2, 49.9 ], [ 11.0, 49.9 ], [ 11.0, 50.0 ], [ 10.2, 50.0 ] ] ] } },
{ "type": "Feature", "properties": { "status": "auto_validate", "confidence": 0.97, "confidence_tier": "high", "matched_survey_no": "115", "matched_owner_name": "Ramesh Kumar", "matched_land_use": "Mixed Use", "cross_source_support_count": 3, "extraction_method": "segformer", "extraction_confidence": 0.802 }, "geometry": { "type": "Polygon", "coordinates": [ [ [ 32.9, 45.5 ], [ 32.9, 45.4 ], [ 32.7, 45.4 ], [ 32.7, 45.3 ], [ 32.0, 45.3 ], [ 32.0, 45.4 ], [ 31.1, 45.4 ], [ 31.1, 45.3 ], [ 30.9, 45.3 ], [ 30.9, 45.2 ], [ 30.8, 45.2 ], [ 30.8, 44.9 ], [ 30.7, 44.9 ], [ 30.7, 44.2 ], [ 30.8, 44.2 ], [ 30.8, 43.5 ], [ 30.9, 43.5 ], [ 30.9, 43.3 ], [ 31.3, 43.3 ], [ 31.3, 43.4 ], [ 31.6, 43.4 ], [ 31.6, 43.3 ], [ 32.0, 43.3 ], [ 32.0, 43.4 ], [ 32.7, 43.4 ], [ 32.7, 43.3 ], [ 33.6, 43.3 ], [ 33.6, 43.5 ], [ 33.8, 43.5 ], [ 33.8, 43.7 ], [ 33.9, 43.7 ], [ 33.9, 44.1 ], [ 34.0, 44.1 ], [ 34.0, 45.2 ], [ 33.8, 45.2 ], [ 33.8, 45.3 ], [ 33.6, 45.3 ], [ 33.6, 45.4 ], [ 33.2, 45.4 ], [ 33.2, 45.5 ], [ 32.9, 45.5 ] ] ] } },
{ "type": "Feature", "properties": { "status": "auto_validate", "confidence": 0.989, "confidence_tier": "high", "matched_survey_no": "112", "matched_owner_name": "Priya Reddy", "matched_land_use": "Residential", "cross_source_support_count": 3, "extraction_method": "segformer", "extraction_confidence": 0.808 }, "geometry": { "type": "Polygon", "coordinates": [ [ [ 5.2, 45.9 ], [ 5.2, 45.8 ], [ 4.2, 45.8 ], [ 4.2, 45.7 ], [ 3.4, 45.7 ], [ 3.4, 45.6 ], [ 2.1, 45.6 ], [ 2.1, 45.5 ], [ 2.0, 45.5 ], [ 2.0, 45.1 ], [ 1.9, 45.1 ], [ 1.9, 44.8 ], [ 2.0, 44.8 ], [ 2.0, 43.8 ], [ 2.1, 43.8 ], [ 2.1, 42.9 ], [ 2.2, 42.9 ], [ 2.2, 42.7 ], [ 2.3, 42.7 ], [ 2.3, 42.5 ], [ 2.5, 42.5 ], [ 2.5, 42.4 ], [ 3.3, 42.4 ], [ 3.3, 42.5 ], [ 4.2, 42.5 ], [ 4.2, 42.6 ], [ 4.5, 42.6 ], [ 4.5, 42.7 ], [ 5.2, 42.7 ], [ 5.2, 42.8 ], [ 5.9, 42.8 ], [ 5.9, 42.9 ], [ 6.0, 42.9 ], [ 6.0, 45.8 ], [ 5.9, 45.8 ], [ 5.9, 45.9 ], [ 5.2, 45.9 ] ] ] } },
{ "type": "Feature", "properties": { "status": "auto_validate", "confidence": 0.986, "confidence_tier": "high", "matched_survey_no": "116", "matched_owner_name": "Suresh Babu", "matched_land_use": "Residential", "cross_source_support_count": 3, "extraction_method": "segformer", "extraction_confidence": 0.792 }, "geometry": { "type": "Polygon", "coordinates": [ [ [ 17.6, 43.6 ], [ 17.6, 43.5 ], [ 16.9, 43.5 ], [ 16.9, 43.4 ], [ 16.8, 43.4 ], [ 16.8, 43.2 ], [ 16.7, 43.2 ], [ 16.7, 42.5 ], [ 16.8, 42.5 ], [ 16.8, 40.8 ], [ 16.9, 40.8 ], [ 16.9, 40.1 ], [ 17.0, 40.1 ], [ 17.0, 40.0 ], [ 17.1, 40.0 ], [ 17.1, 39.9 ], [ 17.8, 39.9 ], [ 17.8, 40.0 ], [ 19.0, 40.0 ], [ 19.0, 40.1 ], [ 19.1, 40.1 ], [ 19.1, 40.8 ], [ 19.0, 40.8 ], [ 19.0, 41.1 ], [ 18.9, 41.1 ], [ 18.9, 41.9 ], [ 18.8, 41.9 ], [ 18.8, 43.5 ], [ 18.6, 43.5 ], [ 18.6, 43.6 ], [ 17.6, 43.6 ] ] ] } },
{ "type": "Feature", "properties": { "status": "auto_validate", "confidence": 0.977, "confidence_tier": "high", "matched_survey_no": "104", "matched_owner_name": "Suresh Babu", "matched_land_use": "Mixed Use", "cross_source_support_count": 3, "extraction_method": "segformer", "extraction_confidence": 0.821 }, "geometry": { "type": "Polygon", "coordinates": [ [ [ 39.2, 40.5 ], [ 39.2, 40.4 ], [ 37.1, 40.4 ], [ 37.1, 40.3 ], [ 36.8, 40.3 ], [ 36.8, 40.2 ], [ 36.6, 40.2 ], [ 36.6, 40.0 ], [ 36.5, 40.0 ], [ 36.5, 38.9 ], [ 36.6, 38.9 ], [ 36.6, 38.4 ], [ 39.5, 38.4 ], [ 39.5, 38.7 ], [ 39.6, 38.7 ], [ 39.6, 38.8 ], [ 39.7, 38.8 ], [ 39.7, 40.3 ], [ 39.6, 40.3 ], [ 39.6, 40.4 ], [ 39.5, 40.4 ], [ 39.5, 40.5 ], [ 39.2, 40.5 ] ] ] } },
{ "type": "Feature", "properties": { "status": "auto_validate", "confidence": 0.955, "confidence_tier": "high", "matched_survey_no": "106", "matched_owner_name": "Kavitha Iyer", "matched_land_use": "Commercial", "cross_source_support_count": 3, "extraction_method": "segformer", "extraction_confidence": 0.732 }, "geometry": { "type": "Polygon", "coordinates": [ [ [ 24.3, 41.3 ], [ 24.3, 41.2 ], [ 23.2, 41.2 ], [ 23.2, 41.1 ], [ 23.1, 41.1 ], [ 23.1, 40.8 ], [ 23.0, 40.8 ], [ 23.0, 40.4 ], [ 23.1, 40.4 ], [ 23.1, 38.9 ], [ 23.2, 38.9 ], [ 23.2, 38.4 ], [ 23.3, 38.4 ], [ 23.3, 38.2 ], [ 23.4, 38.2 ], [ 23.4, 38.1 ], [ 24.2, 38.1 ], [ 24.2, 38.2 ], [ 24.4, 38.2 ], [ 24.4, 38.4 ], [ 25.6, 38.4 ], [ 25.6, 39.1 ], [ 25.4, 39.1 ], [ 25.4, 39.2 ], [ 25.3, 39.2 ], [ 25.3, 41.1 ], [ 25.2, 41.1 ], [ 25.2, 41.2 ], [ 24.8, 41.2 ], [ 24.8, 41.3 ], [ 24.3, 41.3 ] ] ] } },
{ "type": "Feature", "properties": { "status": "auto_validate", "confidence": 0.969, "confidence_tier": "high", "matched_survey_no": "119", "matched_owner_name": "Vijay Rao", "matched_land_use": "Institutional", "cross_source_support_count": 3, "extraction_method": "segformer", "extraction_confidence": 0.795 }, "geometry": { "type": "Polygon", "coordinates": [ [ [ 43.7, 39.6 ], [ 43.7, 39.5 ], [ 43.6, 39.5 ], [ 43.6, 39.4 ], [ 43.5, 39.4 ], [ 43.5, 39.3 ], [ 43.4, 39.3 ], [ 43.4, 39.1 ], [ 43.3, 39.1 ], [ 43.3, 38.7 ], [ 43.4, 38.7 ], [ 43.4, 37.8 ], [ 43.5, 37.8 ], [ 43.5, 36.2 ], [ 43.6, 36.2 ], [ 43.6, 36.0 ], [ 44.4, 36.0 ], [ 44.4, 36.1 ], [ 45.2, 36.1 ], [ 45.2, 36.2 ], [ 45.3, 36.2 ], [ 45.3, 37.9 ], [ 45.2, 37.9 ], [ 45.2, 39.5 ], [ 45.0, 39.5 ], [ 45.0, 39.6 ], [ 43.7, 39.6 ] ] ] } },
{ "type": "Feature", "properties": { "status": "auto_validate", "confidence": 0.964, "confidence_tier": "high", "matched_survey_no": "111", "matched_owner_name": "Priya Reddy", "matched_land_use": "Institutional", "cross_source_support_count": 2, "extraction_method": "segformer", "extraction_confidence": 0.864 }, "geometry": { "type": "Polygon", "coordinates": [ [ [ 14.1, 36.8 ], [ 14.1, 36.7 ], [ 14.0, 36.7 ], [ 14.0, 36.5 ], [ 13.9, 36.5 ], [ 13.9, 35.3 ], [ 13.8, 35.3 ], [ 13.8, 35.1 ], [ 13.7, 35.1 ], [ 13.7, 34.1 ], [ 13.6, 34.1 ], [ 13.6, 33.6 ], [ 13.7, 33.6 ], [ 13.7, 33.4 ], [ 13.8, 33.4 ], [ 13.8, 33.3 ], [ 15.0, 33.3 ], [ 15.0, 33.2 ], [ 17.4, 33.2 ], [ 17.4, 33.3 ], [ 17.5, 33.3 ], [ 17.5, 34.0 ], [ 17.6, 34.0 ], [ 17.6, 36.4 ], [ 17.4, 36.4 ], [ 17.4, 36.5 ], [ 17.2, 36.5 ], [ 17.2, 36.6 ], [ 16.2, 36.6 ], [ 16.2, 36.7 ], [ 15.9, 36.7 ], [ 15.9, 36.8 ], [ 14.1, 36.8 ] ] ] } },
{ "type": "Feature", "properties": { "status": "auto_validate", "confidence": 0.985, "confidence_tier": "high", "matched_survey_no": "113", "matched_owner_name": "Suresh Babu", "matched_land_use": "Mixed Use", "cross_source_support_count": 3, "extraction_method": "segformer", "extraction_confidence": 0.769 }, "geometry": { "type": "Polygon", "coordinates": [ [ [ 30.9, 33.0 ], [ 30.9, 32.9 ], [ 30.7, 32.9 ], [ 30.7, 32.8 ], [ 30.5, 32.8 ], [ 30.5, 32.6 ], [ 30.4, 32.6 ], [ 30.4, 30.9 ], [ 30.5, 30.9 ], [ 30.5, 30.8 ], [ 32.3, 30.8 ], [ 32.3, 30.9 ], [ 32.4, 30.9 ], [ 32.4, 31.8 ], [ 32.5, 31.8 ], [ 32.5, 32.0 ], [ 32.6, 32.0 ], [ 32.6, 32.2 ], [ 32.7, 32.2 ], [ 32.7, 32.6 ], [ 32.6, 32.6 ], [ 32.6, 32.7 ], [ 32.4, 32.7 ], [ 32.4, 32.8 ], [ 32.0, 32.8 ], [ 32.0, 32.9 ], [ 31.5, 32.9 ], [ 31.5, 33.0 ], [ 30.9, 33.0 ] ] ] } },
{ "type": "Feature", "properties": { "status": "auto_validate", "confidence": 0.986, "confidence_tier": "high", "matched_survey_no": "100", "matched_owner_name": "Priya Reddy", "matched_land_use": "Mixed Use", "cross_source_support_count": 3, "extraction_method": "specialized", "extraction_confidence": 0.827 }, "geometry": { "type": "Polygon", "coordinates": [ [ [ 39.0, 30.5 ], [ 39.0, 30.4 ], [ 38.2, 30.4 ], [ 38.2, 30.3 ], [ 37.4, 30.3 ], [ 37.4, 30.2 ], [ 36.5, 30.2 ], [ 36.5, 30.1 ], [ 35.7, 30.1 ], [ 35.7, 30.0 ], [ 35.6, 30.0 ], [ 35.6, 28.0 ], [ 35.7, 28.0 ], [ 35.7, 27.7 ], [ 35.8, 27.7 ], [ 35.8, 27.1 ], [ 35.9, 27.1 ], [ 35.9, 26.7 ], [ 36.0, 26.7 ], [ 36.0, 26.5 ], [ 36.1, 26.5 ], [ 36.1, 26.4 ], [ 36.2, 26.4 ], [ 36.2, 26.3 ], [ 37.4, 26.3 ], [ 37.4, 26.4 ], [ 38.4, 26.4 ], [ 38.4, 26.5 ], [ 39.0, 26.5 ], [ 39.0, 26.6 ], [ 39.3, 26.6 ], [ 39.3, 26.7 ], [ 39.9, 26.7 ], [ 39.9, 26.8 ], [ 40.0, 26.8 ], [ 40.0, 26.9 ], [ 40.1, 26.9 ], [ 40.1, 27.0 ], [ 40.2, 27.0 ], [ 40.2, 27.6 ], [ 40.1, 27.6 ], [ 40.1, 28.7 ], [ 40.0, 28.7 ], [ 40.0, 29.2 ], [ 40.1, 29.2 ], [ 40.1, 30.3 ], [ 40.0, 30.3 ], [ 40.0, 30.4 ], [ 39.9, 30.4 ], [ 39.9, 30.5 ], [ 39.0, 30.5 ] ] ] } },
{ "type": "Feature", "properties": { "status": "auto_validate", "confidence": 0.985, "confidence_tier": "high", "matched_survey_no": "118", "matched_owner_name": "Suresh Babu", "matched_land_use": "Residential", "cross_source_support_count": 3, "extraction_method": "segformer", "extraction_confidence": 0.877 }, "geometry": { "type": "Polygon", "coordinates": [ [ [ 22.9, 27.9 ], [ 22.9, 27.8 ], [ 22.8, 27.8 ], [ 22.8, 27.6 ], [ 22.7, 27.6 ], [ 22.7, 24.5 ], [ 22.8, 24.5 ], [ 22.8, 24.2 ], [ 23.3, 24.2 ], [ 23.3, 24.3 ], [ 23.7, 24.3 ], [ 23.7, 24.4 ], [ 25.6, 24.4 ], [ 25.6, 24.3 ], [ 27.0, 24.3 ], [ 27.0, 24.4 ], [ 27.2, 24.4 ], [ 27.2, 27.2 ], [ 27.3, 27.2 ], [ 27.3, 27.5 ], [ 27.2, 27.5 ], [ 27.2, 27.7 ], [ 27.1, 27.7 ], [ 27.1, 27.8 ], [ 26.0, 27.8 ], [ 26.0, 27.9 ], [ 25.1, 27.9 ], [ 25.1, 27.8 ], [ 24.4, 27.8 ], [ 24.4, 27.9 ], [ 22.9, 27.9 ] ] ] } },
{ "type": "Feature", "properties": { "status": "auto_validate", "confidence": 0.986, "confidence_tier": "high", "matched_survey_no": "110", "matched_owner_name": "Sunita Devi", "matched_land_use": "Residential", "cross_source_support_count": 3, "extraction_method": "segformer", "extraction_confidence": 0.769 }, "geometry": { "type": "Polygon", "coordinates": [ [ [ 32.7, 24.8 ], [ 32.7, 24.7 ], [ 31.7, 24.7 ], [ 31.7, 24.6 ], [ 31.5, 24.6 ], [ 31.5, 24.5 ], [ 30.9, 24.5 ], [ 30.9, 24.4 ], [ 30.0, 24.4 ], [ 30.0, 24.3 ], [ 29.8, 24.3 ], [ 29.8, 23.2 ], [ 29.9, 23.2 ], [ 29.9, 22.5 ], [ 30.0, 22.5 ], [ 30.0, 21.7 ], [ 30.1, 21.7 ], [ 30.1, 21.6 ], [ 31.0, 21.6 ], [ 31.0, 21.7 ], [ 31.6, 21.7 ], [ 31.6, 21.8 ], [ 31.9, 21.8 ], [ 31.9, 21.9 ], [ 32.3, 21.9 ], [ 32.3, 22.0 ], [ 33.4, 22.0 ], [ 33.4, 22.1 ], [ 33.5, 22.1 ], [ 33.5, 23.2 ], [ 33.4, 23.2 ], [ 33.4, 23.5 ], [ 33.3, 23.5 ], [ 33.3, 24.3 ], [ 33.2, 24.3 ], [ 33.2, 24.7 ], [ 33.1, 24.7 ], [ 33.1, 24.8 ], [ 32.7, 24.8 ] ] ] } },
{ "type": "Feature", "properties": { "status": "auto_validate", "confidence": 0.951, "confidence_tier": "high", "matched_survey_no": "103", "matched_owner_name": "Sunita Devi", "matched_land_use": "Institutional", "cross_source_support_count": 3, "extraction_method": "specialized", "extraction_confidence": 0.731 }, "geometry": { "type": "Polygon", "coordinates": [ [ [ 12.8, 25.6 ], [ 12.8, 25.3 ], [ 12.5, 25.3 ], [ 12.5, 25.2 ], [ 12.4, 25.2 ], [ 12.4, 25.0 ], [ 12.3, 25.0 ], [ 12.3, 23.9 ], [ 12.2, 23.9 ], [ 12.2, 23.2 ], [ 12.1, 23.2 ], [ 12.1, 21.8 ], [ 12.0, 21.8 ], [ 12.0, 21.3 ], [ 12.1, 21.3 ], [ 12.1, 21.1 ], [ 12.2, 21.1 ], [ 12.2, 21.0 ], [ 12.3, 21.0 ], [ 12.3, 20.9 ], [ 12.8, 20.9 ], [ 12.8, 21.0 ], [ 13.0, 21.0 ], [ 13.0, 21.1 ], [ 13.5, 21.1 ], [ 13.5, 21.2 ], [ 13.8, 21.2 ], [ 13.8, 21.3 ], [ 13.9, 21.3 ], [ 13.9, 21.5 ], [ 14.0, 21.5 ], [ 14.0, 21.7 ], [ 14.1, 21.7 ], [ 14.1, 21.9 ], [ 14.2, 21.9 ], [ 14.2, 22.7 ], [ 14.3, 22.7 ], [ 14.3, 24.0 ], [ 14.1, 24.0 ], [ 14.1, 24.3 ], [ 14.3, 24.3 ], [ 14.3, 24.5 ], [ 14.4, 24.5 ], [ 14.4, 25.1 ], [ 14.3, 25.1 ], [ 14.3, 25.2 ], [ 14.2, 25.2 ], [ 14.2, 25.3 ], [ 13.9, 25.3 ], [ 13.9, 25.4 ], [ 13.7, 25.4 ], [ 13.7, 25.6 ], [ 12.8, 25.6 ] ] ] } },
{ "type": "Feature", "properties": { "status": "auto_validate", "confidence": 0.972, "confidence_tier": "high", "matched_survey_no": "117", "matched_owner_name": "Priya Reddy", "matched_land_use": "Institutional", "cross_source_support_count": 3, "extraction_method": "segformer", "extraction_confidence": 0.771 }, "geometry": { "type": "Polygon", "coordinates": [ [ [ 45.3, 23.8 ], [ 45.3, 23.7 ], [ 44.3, 23.7 ], [ 44.3, 23.6 ], [ 43.4, 23.6 ], [ 43.4, 23.5 ], [ 43.3, 23.5 ], [ 43.3, 23.4 ], [ 43.2, 23.4 ], [ 43.2, 22.2 ], [ 43.3, 22.2 ], [ 43.3, 21.7 ], [ 43.4, 21.7 ], [ 43.4, 21.4 ], [ 43.5, 21.4 ], [ 43.5, 20.8 ], [ 43.6, 20.8 ], [ 43.6, 20.1 ], [ 43.7, 20.1 ], [ 43.7, 20.0 ], [ 44.5, 20.0 ], [ 44.5, 20.1 ], [ 45.0, 20.1 ], [ 45.0, 20.2 ], [ 45.3, 20.2 ], [ 45.3, 20.3 ], [ 45.8, 20.3 ], [ 45.8, 20.4 ], [ 46.3, 20.4 ], [ 46.3, 20.5 ], [ 46.4, 20.5 ], [ 46.4, 21.3 ], [ 46.3, 21.3 ], [ 46.3, 21.8 ], [ 46.2, 21.8 ], [ 46.2, 22.1 ], [ 46.1, 22.1 ], [ 46.1, 22.8 ], [ 46.0, 22.8 ], [ 46.0, 23.7 ], [ 45.9, 23.7 ], [ 45.9, 23.8 ], [ 45.3, 23.8 ] ] ] } },
{ "type": "Feature", "properties": { "status": "auto_validate", "confidence": 0.982, "confidence_tier": "high", "matched_survey_no": "109", "matched_owner_name": "Ramesh Kumar", "matched_land_use": "Residential", "cross_source_support_count": 3, "extraction_method": "segformer", "extraction_confidence": 0.797 }, "geometry": { "type": "Polygon", "coordinates": [ [ [ 6.9, 20.0 ], [ 6.9, 19.9 ], [ 6.8, 19.9 ], [ 6.8, 19.8 ], [ 6.7, 19.8 ], [ 6.7, 19.4 ], [ 6.6, 19.4 ], [ 6.6, 19.2 ], [ 6.5, 19.2 ], [ 6.5, 19.0 ], [ 6.4, 19.0 ], [ 6.4, 16.4 ], [ 6.5, 16.4 ], [ 6.5, 16.3 ], [ 6.6, 16.3 ], [ 6.6, 16.2 ], [ 7.0, 16.2 ], [ 7.0, 16.3 ], [ 7.3, 16.3 ], [ 7.3, 16.4 ], [ 7.8, 16.4 ], [ 7.8, 16.3 ], [ 8.2, 16.3 ], [ 8.2, 16.2 ], [ 9.0, 16.2 ], [ 9.0, 16.1 ], [ 9.5, 16.1 ], [ 9.5, 16.2 ], [ 9.6, 16.2 ], [ 9.6, 17.4 ], [ 9.7, 17.4 ], [ 9.7, 17.7 ], [ 9.8, 17.7 ], [ 9.8, 18.4 ], [ 9.9, 18.4 ], [ 9.9, 18.9 ], [ 10.0, 18.9 ], [ 10.0, 19.5 ], [ 9.9, 19.5 ], [ 9.9, 19.6 ], [ 9.4, 19.6 ], [ 9.4, 19.7 ], [ 9.0, 19.7 ], [ 9.0, 19.8 ], [ 8.0, 19.8 ], [ 8.0, 19.9 ], [ 7.5, 19.9 ], [ 7.5, 20.0 ], [ 6.9, 20.0 ] ] ] } },
{ "type": "Feature", "properties": { "status": "auto_validate", "confidence": 0.972, "confidence_tier": "high", "matched_survey_no": "107", "matched_owner_name": "Vijay Rao", "matched_land_use": "Commercial", "cross_source_support_count": 3, "extraction_method": "segformer", "extraction_confidence": 0.794 }, "geometry": { "type": "Polygon", "coordinates": [ [ [ 39.7, 18.8 ], [ 39.7, 18.7 ], [ 39.6, 18.7 ], [ 39.6, 18.6 ], [ 39.5, 18.6 ], [ 39.5, 17.8 ], [ 39.4, 17.8 ], [ 39.4, 17.6 ], [ 39.3, 17.6 ], [ 39.3, 16.8 ], [ 39.4, 16.8 ], [ 39.4, 16.4 ], [ 39.3, 16.4 ], [ 39.3, 15.2 ], [ 39.2, 15.2 ], [ 39.2, 14.5 ], [ 39.3, 14.5 ], [ 39.3, 14.4 ], [ 41.5, 14.4 ], [ 41.5, 14.5 ], [ 41.8, 14.5 ], [ 41.8, 14.7 ], [ 41.9, 14.7 ], [ 41.9, 15.3 ], [ 41.8, 15.3 ], [ 41.8, 15.6 ], [ 41.9, 15.6 ], [ 41.9, 16.2 ], [ 42.0, 16.2 ], [ 42.0, 17.8 ], [ 42.1, 17.8 ], [ 42.1, 18.4 ], [ 42.0, 18.4 ], [ 42.0, 18.5 ], [ 41.8, 18.5 ], [ 41.8, 18.6 ], [ 41.5, 18.6 ], [ 41.5, 18.7 ], [ 40.5, 18.7 ], [ 40.5, 18.8 ], [ 39.7, 18.8 ] ] ] } },
{ "type": "Feature", "properties": { "status": "auto_validate", "confidence": 0.976, "confidence_tier": "high", "matched_survey_no": "105", "matched_owner_name": "Sunita Devi", "matched_land_use": "Mixed Use", "cross_source_support_count": 3, "extraction_method": "segformer", "extraction_confidence": 0.838 }, "geometry": { "type": "Polygon", "coordinates": [ [ [ 31.7, 16.0 ], [ 31.7, 15.9 ], [ 31.6, 15.9 ], [ 31.6, 15.6 ], [ 31.5, 15.6 ], [ 31.5, 13.5 ], [ 31.6, 13.5 ], [ 31.6, 13.2 ], [ 31.7, 13.2 ], [ 31.7, 13.0 ], [ 32.2, 13.0 ], [ 32.2, 13.1 ], [ 33.2, 13.1 ], [ 33.2, 13.2 ], [ 35.9, 13.2 ], [ 35.9, 13.3 ], [ 36.2, 13.3 ], [ 36.2, 14.0 ], [ 36.1, 14.0 ], [ 36.1, 15.1 ], [ 36.2, 15.1 ], [ 36.2, 15.5 ], [ 36.3, 15.5 ], [ 36.3, 15.9 ], [ 36.0, 15.9 ], [ 36.0, 16.0 ], [ 31.7, 16.0 ] ] ] } },
{ "type": "Feature", "properties": { "status": "auto_validate", "confidence": 0.968, "confidence_tier": "high", "matched_survey_no": "101", "matched_owner_name": "Priya Reddy", "matched_land_use": "Residential", "cross_source_support_count": 3, "extraction_method": "segformer", "extraction_confidence": 0.84 }, "geometry": { "type": "Polygon", "coordinates": [ [ [ 45.8, 15.0 ], [ 45.8, 14.9 ], [ 45.5, 14.9 ], [ 45.5, 14.8 ], [ 45.0, 14.8 ], [ 45.0, 13.2 ], [ 45.1, 13.2 ], [ 45.1, 12.8 ], [ 49.1, 12.8 ], [ 49.1, 13.3 ], [ 49.2, 13.3 ], [ 49.2, 14.7 ], [ 49.1, 14.7 ], [ 49.1, 14.8 ], [ 47.7, 14.8 ], [ 47.7, 14.9 ], [ 46.9, 14.9 ], [ 46.9, 14.8 ], [ 46.4, 14.8 ], [ 46.4, 14.9 ], [ 46.2, 14.9 ], [ 46.2, 15.0 ], [ 45.8, 15.0 ] ] ] } },
{ "type": "Feature", "properties": { "status": "auto_validate", "confidence": 0.979, "confidence_tier": "high", "matched_survey_no": "121", "matched_owner_name": "Lakshmi Narayana", "matched_land_use": "Mixed Use", "cross_source_support_count": 3, "extraction_method": "segformer", "extraction_confidence": 0.798 }, "geometry": { "type": "Polygon", "coordinates": [ [ [ 18.3, 14.9 ], [ 18.3, 14.8 ], [ 16.6, 14.8 ], [ 16.6, 14.7 ], [ 16.3, 14.7 ], [ 16.3, 14.6 ], [ 15.6, 14.6 ], [ 15.6, 14.5 ], [ 14.9, 14.5 ], [ 14.9, 14.4 ], [ 14.7, 14.4 ], [ 14.7, 14.3 ], [ 14.6, 14.3 ], [ 14.6, 14.0 ], [ 14.7, 14.0 ], [ 14.7, 12.3 ], [ 14.8, 12.3 ], [ 14.8, 11.4 ], [ 14.9, 11.4 ], [ 14.9, 11.3 ], [ 15.0, 11.3 ], [ 15.0, 11.2 ], [ 15.6, 11.2 ], [ 15.6, 11.3 ], [ 16.4, 11.3 ], [ 16.4, 11.4 ], [ 17.4, 11.4 ], [ 17.4, 11.5 ], [ 18.4, 11.5 ], [ 18.4, 11.6 ], [ 19.2, 11.6 ], [ 19.2, 11.7 ], [ 19.4, 11.7 ], [ 19.4, 11.8 ], [ 19.5, 11.8 ], [ 19.5, 12.3 ], [ 19.4, 12.3 ], [ 19.4, 12.8 ], [ 19.3, 12.8 ], [ 19.3, 14.7 ], [ 19.2, 14.7 ], [ 19.2, 14.8 ], [ 19.0, 14.8 ], [ 19.0, 14.9 ], [ 18.3, 14.9 ] ] ] } },
{ "type": "Feature", "properties": { "status": "manual_review", "confidence": 0.006, "confidence_tier": "low", "matched_survey_no": "101", "matched_owner_name": "Priya Reddy", "matched_land_use": "Residential", "cross_source_support_count": 3, "extraction_method": "specialized", "extraction_confidence": 0.819 }, "geometry": { "type": "Polygon", "coordinates": [ [ [ 41.7, 9.3 ], [ 41.7, 8.7 ], [ 41.6, 8.7 ], [ 41.6, 7.7 ], [ 41.5, 7.7 ], [ 41.5, 6.9 ], [ 41.6, 6.9 ], [ 41.6, 6.6 ], [ 41.7, 6.6 ], [ 41.7, 6.5 ], [ 43.0, 6.5 ], [ 43.0, 6.4 ], [ 44.8, 6.4 ], [ 44.8, 6.5 ], [ 44.9, 6.5 ], [ 44.9, 7.3 ], [ 44.8, 7.3 ], [ 44.8, 8.6 ], [ 44.7, 8.6 ], [ 44.7, 8.7 ], [ 44.6, 8.7 ], [ 44.6, 8.8 ], [ 44.4, 8.8 ], [ 44.4, 8.9 ], [ 44.0, 8.9 ], [ 44.0, 9.0 ], [ 43.8, 9.0 ], [ 43.8, 9.1 ], [ 43.5, 9.1 ], [ 43.5, 9.2 ], [ 42.4, 9.2 ], [ 42.4, 9.3 ], [ 41.7, 9.3 ] ] ] } },
{ "type": "Feature", "properties": { "status": "auto_validate", "confidence": 0.985, "confidence_tier": "high", "matched_survey_no": "114", "matched_owner_name": "Kavitha Iyer", "matched_land_use": "Mixed Use", "cross_source_support_count": 2, "extraction_method": "segformer", "extraction_confidence": 0.805 }, "geometry": { "type": "Polygon", "coordinates": [ [ [ 8.0, 8.8 ], [ 8.0, 8.7 ], [ 6.4, 8.7 ], [ 6.4, 8.6 ], [ 6.2, 8.6 ], [ 6.2, 8.5 ], [ 5.7, 8.5 ], [ 5.7, 8.4 ], [ 5.6, 8.4 ], [ 5.6, 7.5 ], [ 5.7, 7.5 ], [ 5.7, 7.2 ], [ 5.8, 7.2 ], [ 5.8, 6.8 ], [ 5.7, 6.8 ], [ 5.7, 6.5 ], [ 5.8, 6.5 ], [ 5.8, 6.3 ], [ 5.9, 6.3 ], [ 5.9, 6.2 ], [ 6.0, 6.2 ], [ 6.0, 6.1 ], [ 6.5, 6.1 ], [ 6.5, 6.2 ], [ 8.0, 6.2 ], [ 8.0, 6.3 ], [ 8.5, 6.3 ], [ 8.5, 6.4 ], [ 8.8, 6.4 ], [ 8.8, 6.5 ], [ 8.9, 6.5 ], [ 8.9, 7.5 ], [ 8.8, 7.5 ], [ 8.8, 8.6 ], [ 8.7, 8.6 ], [ 8.7, 8.7 ], [ 8.6, 8.7 ], [ 8.6, 8.8 ], [ 8.0, 8.8 ] ] ] } },
{ "type": "Feature", "properties": { "status": "auto_validate", "confidence": 0.968, "confidence_tier": "high", "matched_survey_no": "102", "matched_owner_name": "Anil Sharma", "matched_land_use": "Commercial", "cross_source_support_count": 3, "extraction_method": "segformer", "extraction_confidence": 0.889 }, "geometry": { "type": "Polygon", "coordinates": [ [ [ 20.1, 8.5 ], [ 20.1, 8.4 ], [ 18.0, 8.4 ], [ 18.0, 8.3 ], [ 17.9, 8.3 ], [ 17.9, 8.0 ], [ 17.8, 8.0 ], [ 17.8, 7.6 ], [ 17.9, 7.6 ], [ 17.9, 5.6 ], [ 17.8, 5.6 ], [ 17.8, 4.5 ], [ 17.9, 4.5 ], [ 17.9, 4.3 ], [ 18.0, 4.3 ], [ 18.0, 4.1 ], [ 18.9, 4.1 ], [ 18.9, 4.2 ], [ 20.7, 4.2 ], [ 20.7, 4.1 ], [ 21.4, 4.1 ], [ 21.4, 4.2 ], [ 21.5, 4.2 ], [ 21.5, 4.4 ], [ 21.6, 4.4 ], [ 21.6, 8.4 ], [ 21.5, 8.4 ], [ 21.5, 8.5 ], [ 20.1, 8.5 ] ] ] } }
]
}
